{
  "norad_id": 66216,
  "name": "STARLINK-35709",
  "history": [
    {
      "epoch": "2026-03-28T20:50:34.274400",
      "apogee_km": 476.0174231783276,
      "perigee_km": 474.3124587214579,
      "latitude_deg": -16.711166233909207,
      "longitude_deg": 164.97141600004397,
      "semi_major_axis_km": 6853.301940949892,
      "eccentricity": 0.00012439,
      "inclination_deg": 53.1596,
      "raan_deg": 140.9856,
      "arg_perigee_deg": 99.7106,
      "mean_anomaly_deg": 260.4035,
      "mean_motion_rev_day": 15.30216789
    }
  ]
}