{"fetched_at":"2026-03-30T06:02:59Z","count":15439,"tles":[{"name":"STARLINK-35709","line1":"1 66216U 25244L   26087.86845225  .00018649  00000+0  63988-3 0  9995","line2":"2 66216  53.1596 140.9856 0001243  99.7106 260.4035 15.30216789 24599","category":"Starlink"}]}